[{"OBJECT_NAME":"OBJECT D","OBJECT_ID":"2024-085D","EPOCH":"2026-03-09T22:53:13.410816","MEAN_MOTION":15.33413141,"ECCENTRICITY":0.00152451,"INCLINATION":97.3312,"RA_OF_ASC_NODE":145.3953,"ARG_OF_PERICENTER":54.9672,"MEAN_ANOMALY":305.2998,"EPHEMERIS_TYPE":0,"CLASSIFICATION_TYPE":"U","NORAD_CAT_ID":59680,"ELEMENT_SET_NO":999,"REV_AT_EPOCH":10244,"BSTAR":0.00049264705,"MEAN_MOTION_DOT":0.00015903,"MEAN_MOTION_DDOT":0},{"OBJECT_NAME":"STARLINK-35723","OBJECT_ID":"2025-244F","EPOCH":"2026-03-09T18:06:15.387264","MEAN_MOTION":15.30210282,"ECCENTRICITY":0.00013227,"INCLINATION":53.1584,"RA_OF_ASC_NODE":229.3139,"ARG_OF_PERICENTER":85.1641,"MEAN_ANOMALY":274.9511,"EPHEMERIS_TYPE":0,"CLASSIFICATION_TYPE":"U","NORAD_CAT_ID":66211,"ELEMENT_SET_NO":999,"REV_AT_EPOCH":2166,"BSTAR":0.0010713325,"MEAN_MOTION_DOT":0.00031515,"MEAN_MOTION_DDOT":0}]
